NORAD_CAT_ID,OBJECT_NAME,OBJECT_TYPE,EPOCH,MEAN_MOTION,ECCENTRICITY,INCLINATION,RA_OF_ASC_NODE,ARG_OF_PERICENTER,MEAN_ANOMALY,BSTAR,MEAN_MOTION_DOT,MEAN_MOTION_DDOT,TLE_LINE0,TLE_LINE1,TLE_LINE2,SEMIMAJOR_AXIS,PERIOD,APOGEE,PERIGEE,DECAYED
54015.0,STARLINK-5055,PAYLOAD,2022-11-30 14:00:01,15.68892787,0.0002218,53.2175,176.335,266.4141,346.2751,-0.0083792,-0.00883414,0.0,0 STARLINK-5055,1 54015U 22125BD  22334.58335648 -.00883414  00000-0 -83792-2 0  9994,2 54015  53.2175 176.3350 0002218 266.4141 346.2751 15.68892787  1305,6740.203,91.784,363.56300000000016,360.573,0.0
54015.0,STARLINK-5055,PAYLOAD,2022-11-30 22:00:00,15.68245835,6.900000000000003e-06,53.2174,174.6989,8.98,327.0068,-0.0086822999999999,-0.00903346,0.0,0 STARLINK-5055,1 54015U 22125BD  22334.91667824 -.00903346  00000-0 -86823-2 0  9990,2 54015  53.2174 174.6989 0000069   8.9800 327.0068 15.68245835  1300,6742.057,91.822,363.968,363.875,0.0
54015.0,STARLINK-5055,PAYLOAD,2022-12-01 06:00:00,15.67603235,7.72e-05,53.2174,173.06099999999995,16.7726,41.7949,-0.0090617,-0.00917067,0.0,0 STARLINK-5055,1 54015U 22125BD  22335.25001157 -.00917067  00000-0 -90617-2 0  9990,2 54015  53.2174 173.0610 0000772  16.7726  41.7949 15.67603235  9238,6743.899,91.86,366.285,365.244,0.0
54015.0,STARLINK-5055,PAYLOAD,2022-12-01 14:00:01,15.66947672,0.0001177,53.2177,171.4251,82.3136,58.0561,-0.0092227,-0.00909486,0.0,0 STARLINK-5055,1 54015U 22125BD  22335.58334491 -.00909486  00000-0 -92227-2 0  9991,2 54015  53.2177 171.4251 0001177  82.3136  58.0561 15.66947672  1304,6745.78,91.898,368.439,366.851,0.0
54015.0,STARLINK-5055,PAYLOAD,2022-12-01 22:00:00,15.66311824,0.0001175,53.2171,169.7948,94.034,127.3439,-0.0096848,-0.00928762,0.0,0 STARLINK-5055,1 54015U 22125BD  22335.91667824 -.00928762  00000-0 -96848-2 0  9998,2 54015  53.2171 169.7948 0001175  94.0340 127.3439 15.66311824  1304,6747.606,91.936,370.263,368.67800000000005,0.0
54015.0,STARLINK-5055,PAYLOAD,2022-12-02 06:00:00,15.65648212,0.0001083,53.2175,168.1602,78.3743,223.249,-0.0097778,-0.00914201,0.0,0 STARLINK-5055,1 54015U 22125BD  22336.25001157 -.00914201  00000-0 -97778-2 0  9993,2 54015  53.2175 168.1602 0001083  78.3743 223.2490 15.65648212  9391,6749.512,91.975,372.108,370.646,0.0
54015.0,STARLINK-5055,PAYLOAD,2022-12-02 14:00:01,15.64988376,0.0001144,53.2167,166.5302,78.4188,302.6619,-0.0098838,-0.00901151,0.0,0 STARLINK-5055,1 54015U 22125BD  22336.58334491 -.00901151  00000-0 -98838-2 0  9997,2 54015  53.2167 166.5302 0001144  78.4188 302.6619 15.64988376  1308,6751.409000000002,92.013,374.047,372.502,0.0
54015.0,STARLINK-5055,PAYLOAD,2022-12-02 22:00:00,15.64281349,0.0001206,53.217,164.9035,83.2454,16.5316,-0.0091993,-0.00810802,0.0,0 STARLINK-5055,1 54015U 22125BD  22336.91667824 -.00810802  00000-0 -91993-2 0  9990,2 54015  53.2170 164.9035 0001206  83.2454  16.5316 15.64281349  1307,6753.443,92.055,376.12300000000016,374.494,0.0
54015.0,STARLINK-5055,PAYLOAD,2022-12-03 06:00:00,15.63677628,0.0001261,53.2169,163.2746,64.0336,113.6112,-0.010249,-0.00888078,0.0,0 STARLINK-5055,1 54015U 22125BD  22337.25001157 -.00888078  00000-0 -10249-1 0  9993,2 54015  53.2169 163.2746 0001261  64.0336 113.6112 15.63677628  9559,6755.182,92.091,377.898,376.195,0.0
54015.0,STARLINK-5055,PAYLOAD,2022-12-03 14:00:01,15.63032137,0.0001274,53.2165,161.6487,61.2919,193.4573,-0.010605,-0.00895081,0.0,0 STARLINK-5055,1 54015U 22125BD  22337.58334491 -.00895081  00000-0 -10605-1 0  9997,2 54015  53.2165 161.6487 0001274  61.2919 193.4573 15.63032137  1301,6757.041,92.129,379.767,378.045,0.0
54015.0,STARLINK-5055,PAYLOAD,2022-12-03 22:00:00,15.62394107,0.0001154,53.2168,160.02700000000004,66.7028,264.36400000000003,-0.011127,-0.00913961,0.0,0 STARLINK-5055,1 54015U 22125BD  22337.91667824 -.00913961  00000-0 -11127-1 0  9991,2 54015  53.2168 160.0270 0001154  66.7028 264.3640 15.62394107  1305,6758.880999999999,92.166,381.526,379.966,0.0
54015.0,STARLINK-5055,PAYLOAD,2022-12-04 14:00:01,15.61097098,0.0001444,53.2167,156.7816,51.2101,70.1578,-0.011787,-0.00919838,0.0,0 STARLINK-5055,1 54015U 22125BD  22338.58334491 -.00919838  00000-0 -11787-1 0  9997,2 54015  53.2167 156.7816 0001444  51.2101  70.1578 15.61097098  1306,6762.624,92.243,385.465,383.512,0.0
54015.0,STARLINK-5055,PAYLOAD,2022-12-04 22:00:00,15.6043432,0.0001337,53.2171,155.164,65.6382,129.7119,-0.011849,-0.0090284,0.0,0 STARLINK-5055,1 54015U 22125BD  22338.91667824 -.00902840  00000-0 -11849-1 0  9997,2 54015  53.2171 155.1640 0001337  65.6382 129.7119 15.60434320  9818,6764.5390000000025,92.282,387.3080000000001,385.499,0.0
54015.0,STARLINK-5055,PAYLOAD,2022-12-05 14:00:01,15.59160847,0.0001147,53.2165,151.9283,59.5654,281.4451,-0.013025,-0.00941069,0.0,0 STARLINK-5055,1 54015U 22125BD  22339.58335648 -.00941069  00000-0 -13025-1 0  9991,2 54015  53.2165 151.9283 0001147  59.5654 281.4451 15.59160847  1300,6768.221,92.357,390.86300000000006,389.31,0.0
54015.0,STARLINK-5055,PAYLOAD,2022-12-05 22:00:01,15.58482083,0.0001315999999999,53.2173,150.3148,48.8745,3.7805,-0.012789,-0.0090405,0.0,0 STARLINK-5055,1 54015U 22125BD  22339.91668981 -.00904050  00000-0 -12789-1 0  9992,2 54015  53.2173 150.3148 0001316  48.8745   3.7805 15.58482083  9968,6770.186,92.398,392.942,391.161,0.0
54015.0,STARLINK-5055,PAYLOAD,2022-12-06 14:00:01,15.57172444,0.0001453999999999,53.2163,147.0893,57.146,136.4284,-0.013265,-0.00893413,0.0,0 STARLINK-5055,1 54015U 22125BD  22340.58335648 -.00893413  00000-0 -13265-1 0  9998,2 54015  53.2163 147.0893 0001454  57.1460 136.4284 15.57172444  1308,6773.982,92.475,396.832,394.862,0.0
54015.0,STARLINK-5055,PAYLOAD,2022-12-06 22:00:00,15.56543748,0.0001286,53.2165,145.4817,55.5549,207.2257,-0.014059,-0.00921887,0.0,0 STARLINK-5055,1 54015U 22125BD  22340.91667824 -.00921887  00000-0 -14059-1 0  9998,2 54015  53.2165 145.4817 0001286  55.5549 207.2257 15.56543748  1306,6775.806,92.513,398.542,396.799,0.0
54015.0,STARLINK-5055,PAYLOAD,2022-12-07 22:00:00,15.54587851,0.000195,53.2165,140.6613,28.6984,77.2422,-0.015039,-0.00917573,0.0,0 STARLINK-5055,1 54015U 22125BD  22341.91667824 -.00917573  00000-0 -15039-1 0  9995,2 54015  53.2165 140.6613 0001950  28.6984  77.2422 15.54587851  1309,6781.488,92.629,404.675,402.031,0.0
54015.0,STARLINK-5055,PAYLOAD,2022-12-08 06:00:00,15.53925057,0.000185,53.2174,139.0548,33.5467,138.5572,-0.015133,-0.00902505,0.0,0 STARLINK-5055,1 54015U 22125BD  22342.25001157 -.00902505  00000-0 -15133-1 0  9998,2 54015  53.2174 139.0548 0001850  33.5467 138.5572 15.53925057 10331,6783.416,92.669,406.536,404.026,0.0
54015.0,STARLINK-5055,PAYLOAD,2022-12-08 14:00:01,15.53285384,0.0001426,53.2167,137.4539,7.3414,230.1293,-0.015798,-0.009186,0.0,0 STARLINK-5055,1 54015U 22125BD  22342.58334491 -.00918600  00000-0 -15798-1 0  9994,2 54015  53.2167 137.4539 0001426   7.3414 230.1293 15.53285384  1303,6785.278,92.707,408.111,406.176,0.0
54015.0,STARLINK-5055,PAYLOAD,2022-12-08 17:37:24,15.54794667,0.0001875,53.2135,136.7367,259.626,100.4541,-0.0036888,-0.0024286,0.0,0 STARLINK-5055,1 54015U 22125BD  22342.73431113 -.00242860  00000-0 -36888-2 0  9992,2 54015  53.2135 136.7367 0001875 259.6260 100.4541 15.54794667 10404,6780.887,92.617,404.023,401.48,0.0
54015.0,STARLINK-5055,PAYLOAD,2022-12-09 06:00:02,15.5197169,0.0001411,53.2172,134.2534,40.297,325.6432,-0.0162509999999999,-0.00902454,0.0,0 STARLINK-5055,1 54015U 22125BD  22343.25002315 -.00902454  00000-0 -16251-1 0  9991,2 54015  53.2172 134.2534 0001411  40.2970 325.6432 15.51971690 10480,6789.107,92.785,411.93,410.014,0.0
54015.0,STARLINK-5055,PAYLOAD,2022-12-09 14:00:01,15.51324195,0.0001416999999999,53.2166,132.6575,46.9284,21.9704,-0.016733,-0.00919834,0.0,0 STARLINK-5055,1 54015U 22125BD  22343.58334491 -.00919834  00000-0 -16733-1 0  9995,2 54015  53.2166 132.6575 0001417  46.9284  21.9704 15.51324195  1308,6790.996,92.824,413.823,411.899,0.0
54015.0,STARLINK-5055,PAYLOAD,2022-12-10 00:00:00,15.50396281,0.000146,53.2166,130.6636,40.1605,196.438,-0.0098781,-0.00534101,0.0,0 STARLINK-5055,1 54015U 22125BD  22344.00001157 -.00534101  00000-0 -98781-2 0  9997,2 54015  53.2166 130.6636 0001460  40.1605 196.4380 15.50396281 10600,6793.705,92.879,416.562,414.578,0.0
54015.0,STARLINK-5055,PAYLOAD,2022-12-10 14:00:01,15.4988419,0.0001472,53.2175,127.8741,49.9376,203.6741,4.7443e-05,2.242e-05,0.0,0 STARLINK-5055,1 54015U 22125BD  22344.58334491  .00002242  00000-0  47443-4 0  9995,2 54015  53.2175 127.8741 0001472  49.9376 203.6741 15.49884190 10690,6795.2019999999975,92.91,418.067,416.066,0.0
54015.0,STARLINK-5055,PAYLOAD,2022-12-10 22:00:00,15.49915528,0.0001795,53.2131,126.2864,28.2624,286.3385,-0.0004203,-0.00024259,0.0,0 STARLINK-5055,1 54015U 22125BD  22344.91667824 -.00024259  00000-0 -42030-3 0  9991,2 54015  53.2131 126.2864 0001795  28.2624 286.3385 15.49915528 10743,6795.11,92.908,418.195,415.755,0.0
54015.0,STARLINK-5055,PAYLOAD,2022-12-11 00:00:00,15.49906254,0.000175,53.2131,125.8876,28.8775,30.964,-0.00032279,-0.00018742,0.0,0 STARLINK-5055,1 54015U 22125BD  22345.00001157 -.00018742  00000-0 -32279-3 0  9997,2 54015  53.2131 125.8876 0001750  28.8775  30.9640 15.49906254  1300,6795.137,92.909,418.191,415.81300000000016,0.0
54015.0,STARLINK-5055,PAYLOAD,2022-12-11 06:00:00,15.49883493,0.0001665999999999,53.2174,124.6866,39.667,335.7749,5.8916e-05,2.893e-05,0.0,0 STARLINK-5055,1 54015U 22125BD  22345.25001157  .00002893  00000-0  58916-4 0  9999,2 54015  53.2174 124.6866 0001666  39.6670 335.7749 15.49883493 10791,6795.204000000002,92.91,418.201,415.937,0.0
54015.0,STARLINK-5055,PAYLOAD,2022-12-11 14:00:01,15.49948397,0.0001675999999999,53.2134,123.0998,26.6839,49.7845,-0.0022261,-0.00125083,0.0,0 STARLINK-5055,1 54015U 22125BD  22345.58334491 -.00125083  00000-0 -22261-2 0  9996,2 54015  53.2134 123.0998 0001676  26.6839  49.7845 15.49948397 10840,6795.014,92.906,418.018,415.74,0.0
